IRIDIUM 150             
1 43257U 18030J   25198.18948341 -.00000013  00000+0 -11581-4 0  9991
2 43257  86.3934  70.5181 0001801  86.3484 273.7918 14.34217333382147
IRIDIUM 143             
1 43258U 18030K   25198.58906623 -.00000025  00000+0 -16139-4 0  9990
2 43258  86.3937  70.4306 0001568  89.8136 270.3239 14.34217278382137
IRIDIUM 161             
1 43478U 18047C   25198.50903544  .00000240  00000+0  65275-4 0  9995
2 43478  86.4473 228.2651 0002610  89.2739 270.8761 14.43280332376864
IRIDIUM 152             
1 43479U 18047D   25198.49201660  .00000026  00000+0  21463-5 0  9998
2 43479  86.3949 228.1328 0002396  88.4415 271.7056 14.34217844374510
IRIDIUM 147             
1 43480U 18047E   25198.49835995  .00000001  00000+0 -67910-5 0  9995
2 43480  86.3954 228.1294 0002325  94.1324 266.0137 14.34217475374512
IRIDIUM 110             
1 43481U 18047F   25198.50470169  .00000175  00000+0  55582-4 0  9998
2 43481  86.3951 228.2098 0002783  88.7448 271.4067 14.34217468374500
IRIDIUM 162             
1 43482U 18047G   25198.50273353  .00000234  00000+0  63463-4 0  9998
2 43482  86.4473 228.1627 0002593  85.4939 274.6558 14.43278992376855
IRIDIUM 160             
1 43569U 18061A   25198.45053771  .00000014  00000+0 -20815-5 0  9996
2 43569  86.3991 196.6425 0002435  87.6764 272.4710 14.34217632365392
